[{"OBJECT_NAME":"XM-5","OBJECT_ID":"2010-053A","EPOCH":"2026-03-02T16:59:24.962784","MEAN_MOTION":1.00271101,"ECCENTRICITY":0.0003422,"INCLINATION":0.0697,"RA_OF_ASC_NODE":274.8669,"ARG_OF_PERICENTER":255.2452,"MEAN_ANOMALY":130.0124,"EPHEMERIS_TYPE":0,"CLASSIFICATION_TYPE":"U","NORAD_CAT_ID":37185,"ELEMENT_SET_NO":999,"REV_AT_EPOCH":5641,"BSTAR":0,"MEAN_MOTION_DOT":-4.0e-7,"MEAN_MOTION_DDOT":0},{"OBJECT_NAME":"BSAT-3B","OBJECT_ID":"2010-056B","EPOCH":"2026-03-02T19:42:18.624096","MEAN_MOTION":1.00271383,"ECCENTRICITY":0.0002138,"INCLINATION":0.0886,"RA_OF_ASC_NODE":249.9449,"ARG_OF_PERICENTER":29.3989,"MEAN_ANOMALY":286.6619,"EPHEMERIS_TYPE":0,"CLASSIFICATION_TYPE":"U","NORAD_CAT_ID":37207,"ELEMENT_SET_NO":999,"REV_AT_EPOCH":5103,"BSTAR":0,"MEAN_MOTION_DOT":-3.67e-6,"MEAN_MOTION_DDOT":0},{"OBJECT_NAME":"BEIDOU-2 G4","OBJECT_ID":"2010-057A","EPOCH":"2026-03-02T19:53:38.746752","MEAN_MOTION":1.00271977,"ECCENTRICITY":0.0009183,"INCLINATION":3.3826,"RA_OF_ASC_NODE":69.5548,"ARG_OF_PERICENTER":210.1156,"MEAN_ANOMALY":339.3432,"EPHEMERIS_TYPE":0,"CLASSIFICATION_TYPE":"U","NORAD_CAT_ID":37210,"ELEMENT_SET_NO":999,"REV_AT_EPOCH":5622,"BSTAR":0,"MEAN_MOTION_DOT":-1.27e-6,"MEAN_MOTION_DDOT":0},{"OBJECT_NAME":"SKYTERRA 1","OBJECT_ID":"2010-061A","EPOCH":"2026-03-02T13:37:56.286048","MEAN_MOTION":1.00271346,"ECCENTRICITY":0.0001607,"INCLINATION":4.8984,"RA_OF_ASC_NODE":50.9142,"ARG_OF_PERICENTER":286.3749,"MEAN_ANOMALY":286.2007,"EPHEMERIS_TYPE":0,"CLASSIFICATION_TYPE":"U","NORAD_CAT_ID":37218,"ELEMENT_SET_NO":999,"REV_AT_EPOCH":5612,"BSTAR":0,"MEAN_MOTION_DOT":-1.32e-6,"MEAN_MOTION_DDOT":0},{"OBJECT_NAME":"HYLAS 1","OBJECT_ID":"2010-065A","EPOCH":"2026-03-02T17:31:29.388864","MEAN_MOTION":1.00649619,"ECCENTRICITY":0.0002941,"INCLINATION":5.3734,"RA_OF_ASC_NODE":74.327,"ARG_OF_PERICENTER":328.3238,"MEAN_ANOMALY":17.7742,"EPHEMERIS_TYPE":0,"CLASSIFICATION_TYPE":"U","NORAD_CAT_ID":37237,"ELEMENT_SET_NO":999,"REV_AT_EPOCH":581,"BSTAR":0,"MEAN_MOTION_DOT":2.3e-7,"MEAN_MOTION_DDOT":0},{"OBJECT_NAME":"INTELSAT 17 (IS-17)","OBJECT_ID":"2010-065B","EPOCH":"2026-03-02T20:10:38.498304","MEAN_MOTION":1.00269896,"ECCENTRICITY":0.0002421,"INCLINATION":0.0258,"RA_OF_ASC_NODE":205.3879,"ARG_OF_PERICENTER":145.304,"MEAN_ANOMALY":178.5633,"EPHEMERIS_TYPE":0,"CLASSIFICATION_TYPE":"U","NORAD_CAT_ID":37238,"ELEMENT_SET_NO":999,"REV_AT_EPOCH":5218,"BSTAR":0,"MEAN_MOTION_DOT":-1.7e-7,"MEAN_MOTION_DDOT":0},{"OBJECT_NAME":"BEIDOU-2 IGSO-2","OBJECT_ID":"2010-068A","EPOCH":"2026-03-02T06:48:48.911616","MEAN_MOTION":1.00259336,"ECCENTRICITY":0.00474188,"INCLINATION":47.7363,"RA_OF_ASC_NODE":273.1534,"ARG_OF_PERICENTER":212.8884,"MEAN_ANOMALY":243.4237,"EPHEMERIS_TYPE":0,"CLASSIFICATION_TYPE":"U","NORAD_CAT_ID":37256,"ELEMENT_SET_NO":999,"REV_AT_EPOCH":5572,"BSTAR":0,"MEAN_MOTION_DOT":-1.69e-6,"MEAN_MOTION_DDOT":0},{"OBJECT_NAME":"EUTELSAT KA-SAT 9A","OBJECT_ID":"2010-069A","EPOCH":"2026-03-02T17:34:51.564864","MEAN_MOTION":1.0026918,"ECCENTRICITY":0.0002517,"INCLINATION":0.0562,"RA_OF_ASC_NODE":357.2159,"ARG_OF_PERICENTER":137.6079,"MEAN_ANOMALY":298.384,"EPHEMERIS_TYPE":0,"CLASSIFICATION_TYPE":"U","NORAD_CAT_ID":37258,"ELEMENT_SET_NO":999,"REV_AT_EPOCH":4293,"BSTAR":0,"MEAN_MOTION_DOT":4.4e-7,"MEAN_MOTION_DDOT":0},{"OBJECT_NAME":"HISPASAT 30W-5","OBJECT_ID":"2010-070A","EPOCH":"2026-03-02T17:23:45.130560","MEAN_MOTION":1.00270189,"ECCENTRICITY":0.0003299,"INCLINATION":0.0304,"RA_OF_ASC_NODE":119.2516,"ARG_OF_PERICENTER":236.0064,"MEAN_ANOMALY":36.1548,"EPHEMERIS_TYPE":0,"CLASSIFICATION_TYPE":"U","NORAD_CAT_ID":37264,"ELEMENT_SET_NO":999,"REV_AT_EPOCH":5211,"BSTAR":0,"MEAN_MOTION_DOT":-2.33e-6,"MEAN_MOTION_DDOT":0},{"OBJECT_NAME":"KOREASAT 6","OBJECT_ID":"2010-070B","EPOCH":"2026-03-02T19:53:38.746752","MEAN_MOTION":1.0027211,"ECCENTRICITY":0.0002326,"INCLINATION":0.0129,"RA_OF_ASC_NODE":116.1744,"ARG_OF_PERICENTER":215.989,"MEAN_ANOMALY":286.7196,"EPHEMERIS_TYPE":0,"CLASSIFICATION_TYPE":"U","NORAD_CAT_ID":37265,"ELEMENT_SET_NO":999,"REV_AT_EPOCH":5570,"BSTAR":0,"MEAN_MOTION_DOT":-1.28e-6,"MEAN_MOTION_DDOT":0},{"OBJECT_NAME":"BEIDOU-2 IGSO-3","OBJECT_ID":"2011-013A","EPOCH":"2026-02-27T21:48:44.352288","MEAN_MOTION":1.00294022,"ECCENTRICITY":0.00350296,"INCLINATION":62.2642,"RA_OF_ASC_NODE":41.1818,"ARG_OF_PERICENTER":190.8154,"MEAN_ANOMALY":358.7681,"EPHEMERIS_TYPE":0,"CLASSIFICATION_TYPE":"U","NORAD_CAT_ID":37384,"ELEMENT_SET_NO":999,"REV_AT_EPOCH":5456,"BSTAR":0,"MEAN_MOTION_DOT":-1.54e-6,"MEAN_MOTION_DDOT":0},{"OBJECT_NAME":"INTELSAT 28 (IS-28)","OBJECT_ID":"2011-016A","EPOCH":"2026-03-02T17:23:15.178272","MEAN_MOTION":1.00270518,"ECCENTRICITY":0.0004519,"INCLINATION":1.5311,"RA_OF_ASC_NODE":84.0054,"ARG_OF_PERICENTER":254.3607,"MEAN_ANOMALY":51.2211,"EPHEMERIS_TYPE":0,"CLASSIFICATION_TYPE":"U","NORAD_CAT_ID":37392,"ELEMENT_SET_NO":999,"REV_AT_EPOCH":5221,"BSTAR":0,"MEAN_MOTION_DOT":-2.41e-6,"MEAN_MOTION_DDOT":0},{"OBJECT_NAME":"YAHSAT 1A","OBJECT_ID":"2011-016B","EPOCH":"2026-03-02T19:44:38.776128","MEAN_MOTION":1.00271634,"ECCENTRICITY":0.0003377,"INCLINATION":0.0118,"RA_OF_ASC_NODE":136.5097,"ARG_OF_PERICENTER":214.538,"MEAN_ANOMALY":158.1934,"EPHEMERIS_TYPE":0,"CLASSIFICATION_TYPE":"U","NORAD_CAT_ID":37393,"ELEMENT_SET_NO":999,"REV_AT_EPOCH":4134,"BSTAR":0,"MEAN_MOTION_DOT":8.5e-7,"MEAN_MOTION_DDOT":0},{"OBJECT_NAME":"SBIRS GEO-1 (USA 230)","OBJECT_ID":"2011-019A","EPOCH":"2026-03-02T19:59:36.339936","MEAN_MOTION":1.00272432,"ECCENTRICITY":0.0002272,"INCLINATION":4.3021,"RA_OF_ASC_NODE":53.0914,"ARG_OF_PERICENTER":288.6178,"MEAN_ANOMALY":170.5974,"EPHEMERIS_TYPE":0,"CLASSIFICATION_TYPE":"U","NORAD_CAT_ID":37481,"ELEMENT_SET_NO":999,"REV_AT_EPOCH":5433,"BSTAR":0,"MEAN_MOTION_DOT":8.6e-7,"MEAN_MOTION_DDOT":0},{"OBJECT_NAME":"TELSTAR 14R","OBJECT_ID":"2011-021A","EPOCH":"2026-03-02T12:06:05.091840","MEAN_MOTION":1.00273144,"ECCENTRICITY":0.0002455,"INCLINATION":0.0408,"RA_OF_ASC_NODE":275.3733,"ARG_OF_PERICENTER":71.8133,"MEAN_ANOMALY":291.593,"EPHEMERIS_TYPE":0,"CLASSIFICATION_TYPE":"U","NORAD_CAT_ID":37602,"ELEMENT_SET_NO":999,"REV_AT_EPOCH":5476,"BSTAR":0,"MEAN_MOTION_DOT":-2.97e-6,"MEAN_MOTION_DDOT":0},{"OBJECT_NAME":"GSAT-8","OBJECT_ID":"2011-022A","EPOCH":"2026-03-02T19:44:38.776128","MEAN_MOTION":1.00271553,"ECCENTRICITY":0.0007489,"INCLINATION":1.8562,"RA_OF_ASC_NODE":83.1786,"ARG_OF_PERICENTER":214.1713,"MEAN_ANOMALY":214.4485,"EPHEMERIS_TYPE":0,"CLASSIFICATION_TYPE":"U","NORAD_CAT_ID":37605,"ELEMENT_SET_NO":999,"REV_AT_EPOCH":5215,"BSTAR":0,"MEAN_MOTION_DOT":6.9e-7,"MEAN_MOTION_DDOT":0},{"OBJECT_NAME":"ST-2","OBJECT_ID":"2011-022B","EPOCH":"2026-03-02T19:29:09.960576","MEAN_MOTION":1.00270402,"ECCENTRICITY":0.0001859,"INCLINATION":0.014,"RA_OF_ASC_NODE":116.9518,"ARG_OF_PERICENTER":238.4545,"MEAN_ANOMALY":185.471,"EPHEMERIS_TYPE":0,"CLASSIFICATION_TYPE":"U","NORAD_CAT_ID":37606,"ELEMENT_SET_NO":999,"REV_AT_EPOCH":5421,"BSTAR":0,"MEAN_MOTION_DOT":-2.27e-6,"MEAN_MOTION_DDOT":0},{"OBJECT_NAME":"ZHONGXING-10","OBJECT_ID":"2011-026A","EPOCH":"2026-03-02T16:13:56.332416","MEAN_MOTION":1.0026919,"ECCENTRICITY":0.0002659,"INCLINATION":0.771,"RA_OF_ASC_NODE":85.5744,"ARG_OF_PERICENTER":256.1295,"MEAN_ANOMALY":147.71,"EPHEMERIS_TYPE":0,"CLASSIFICATION_TYPE":"U","NORAD_CAT_ID":37677,"ELEMENT_SET_NO":999,"REV_AT_EPOCH":5393,"BSTAR":0,"MEAN_MOTION_DOT":-2.04e-6,"MEAN_MOTION_DDOT":0},{"OBJECT_NAME":"SES-3","OBJECT_ID":"2011-035A","EPOCH":"2026-03-02T15:20:08.988288","MEAN_MOTION":1.00272104,"ECCENTRICITY":0.0003571,"INCLINATION":1.0513,"RA_OF_ASC_NODE":84.3271,"ARG_OF_PERICENTER":260.4654,"MEAN_ANOMALY":302.6416,"EPHEMERIS_TYPE":0,"CLASSIFICATION_TYPE":"U","NORAD_CAT_ID":37748,"ELEMENT_SET_NO":999,"REV_AT_EPOCH":5352,"BSTAR":0,"MEAN_MOTION_DOT":-1.18e-6,"MEAN_MOTION_DDOT":0},{"OBJECT_NAME":"KAZSAT-2","OBJECT_ID":"2011-035B","EPOCH":"2026-03-02T17:56:56.947776","MEAN_MOTION":1.00272516,"ECCENTRICITY":0.0001082,"INCLINATION":0.0205,"RA_OF_ASC_NODE":126.2715,"ARG_OF_PERICENTER":289.7892,"MEAN_ANOMALY":100.2111,"EPHEMERIS_TYPE":0,"CLASSIFICATION_TYPE":"U","NORAD_CAT_ID":37749,"ELEMENT_SET_NO":999,"REV_AT_EPOCH":5233,"BSTAR":0,"MEAN_MOTION_DOT":-2.14e-6,"MEAN_MOTION_DDOT":0},{"OBJECT_NAME":"BEIDOU-2 IGSO-4","OBJECT_ID":"2011-038A","EPOCH":"2026-03-01T18:02:04.372800","MEAN_MOTION":1.00265713,"ECCENTRICITY":0.0154411,"INCLINATION":54.5889,"RA_OF_ASC_NODE":166.6436,"ARG_OF_PERICENTER":230.9971,"MEAN_ANOMALY":126.927,"EPHEMERIS_TYPE":0,"CLASSIFICATION_TYPE":"U","NORAD_CAT_ID":37763,"ELEMENT_SET_NO":999,"REV_AT_EPOCH":5356,"BSTAR":0,"MEAN_MOTION_DOT":-1.33e-6,"MEAN_MOTION_DDOT":0},{"OBJECT_NAME":"ASTRA 1N","OBJECT_ID":"2011-041A","EPOCH":"2026-03-02T17:59:06.144288","MEAN_MOTION":1.00273017,"ECCENTRICITY":0.0004062,"INCLINATION":0.0673,"RA_OF_ASC_NODE":16.6824,"ARG_OF_PERICENTER":0.7096,"MEAN_ANOMALY":72.0856,"EPHEMERIS_TYPE":0,"CLASSIFICATION_TYPE":"U","NORAD_CAT_ID":37775,"ELEMENT_SET_NO":999,"REV_AT_EPOCH":4346,"BSTAR":0,"MEAN_MOTION_DOT":1.03e-6,"MEAN_MOTION_DDOT":0},{"OBJECT_NAME":"BSAT-3C (JCSAT-110R)","OBJECT_ID":"2011-041B","EPOCH":"2026-03-02T19:42:18.650016","MEAN_MOTION":1.00271643,"ECCENTRICITY":5.02e-5,"INCLINATION":0.0272,"RA_OF_ASC_NODE":64.6972,"ARG_OF_PERICENTER":17.1265,"MEAN_ANOMALY":124.3064,"EPHEMERIS_TYPE":0,"CLASSIFICATION_TYPE":"U","NORAD_CAT_ID":37776,"ELEMENT_SET_NO":999,"REV_AT_EPOCH":4940,"BSTAR":0,"MEAN_MOTION_DOT":-3.67e-6,"MEAN_MOTION_DDOT":0},{"OBJECT_NAME":"PAKSAT-1R","OBJECT_ID":"2011-042A","EPOCH":"2026-03-02T17:43:05.774592","MEAN_MOTION":1.00277435,"ECCENTRICITY":0.0002442,"INCLINATION":0.413,"RA_OF_ASC_NODE":85.7915,"ARG_OF_PERICENTER":301.6994,"MEAN_ANOMALY":76.7854,"EPHEMERIS_TYPE":0,"CLASSIFICATION_TYPE":"U","NORAD_CAT_ID":37779,"ELEMENT_SET_NO":999,"REV_AT_EPOCH":5341,"BSTAR":0,"MEAN_MOTION_DOT":1.37e-6,"MEAN_MOTION_DDOT":0}]
